     3.00           N                   E                   RINEX VERSION / TYPE
BRD_USR             ESA                 20190113 131632  UTCPGM / RUN BY / DATE
 GAL   3.9000E+01  9.3750E-02 -1.2207E-03  0.0000E+00       IONOSPHERIC CORR
GAUT  1.8626451492E-09-1.776356839E-15      0 2036 GSTB   0 TIME SYSTEM CORR
GPGA  8.7311491370E-11-3.108624469E-15      0 2036 GSTB   0 TIME SYSTEM CORR
                                                            END OF HEADER
E05 2019 01 13 11 30 00 1.258121337742E-04-6.536993168993E-12 0.000000000000E+00
     6.900000000000E+01-5.209375000000E+01 3.304780514516E-09-8.849200092704E-02
    -2.283602952957E-06 1.347021898255E-04 1.071207225323E-05 5.440621870041E+03
     4.140000000000E+04-5.587935447693E-09 1.120554870717E+00-2.048909664154E-08
     9.524644101486E-01 1.060312500000E+02 1.628674427707E+00-5.592375802042E-09
    -9.178953768839E-11 2.580000000000E+02 2.036000000000E+03 0.000000000000E+00
     3.120000000000E+00 0.000000000000E+00-1.629814505577E-09 0.000000000000E+00
     4.210000000000E+04 0.000000000000E+00 0.000000000000E+00 0.000000000000E+00
E07 2019 01 13 11 30 00-1.117666251957E-04-7.034373084025E-12 0.000000000000E+00
     6.900000000000E+01-2.309375000000E+01 3.274064949376E-09-8.193481237439E-01
    -1.102685928345E-06 1.349920639768E-04 1.051835715771E-05 5.440621446609E+03
     4.140000000000E+04-1.676380634308E-08 1.120571869825E+00 1.862645149231E-08
     9.524943897288E-01 1.122187500000E+02 1.619829209531E-03-5.564517498775E-09
    -4.071598169835E-11 2.580000000000E+02 2.036000000000E+03 0.000000000000E+00
     3.120000000000E+00 0.000000000000E+00 4.656612873077E-10 0.000000000000E+00
     4.210000000000E+04 0.000000000000E+00 0.000000000000E+00 0.000000000000E+00
E08 2019 01 13 11 30 00 6.424284249078E-03-7.446487870766E-12 0.000000000000E+00
     6.900000000000E+01-3.059375000000E+01 3.129058909292E-09-4.956104458558E-01
    -1.480802893639E-06 2.172630047426E-04 1.010112464428E-05 5.440623193741E+03
     4.140000000000E+04-2.421438694000E-08 1.111964073013E+00 7.450580596924E-09
     9.584376772906E-01 1.220312500000E+02 4.644840271213E-01-5.519872782000E-09
    -7.464596644698E-11 2.580000000000E+02 2.036000000000E+03 0.000000000000E+00
     3.120000000000E+00 0.000000000000E+00-8.614733815193E-09 0.000000000000E+00
     4.210000000000E+04 0.000000000000E+00 0.000000000000E+00 0.000000000000E+00
E09 2019 01 13 11 30 00 6.559552915860E-03-1.132605120802E-11 0.000000000000E+00
     6.900000000000E+01-5.181250000000E+01 3.169060575522E-09 2.230217489785E+00
    -2.393499016762E-06 2.375276526436E-04 1.111812889576E-05 5.440622804642E+03
     4.140000000000E+04 0.000000000000E+00 1.111961926912E+00-1.676380634308E-08
     9.584678441243E-01 9.931250000000E+01 9.357767470862E-02-5.528444567621E-09
    -1.189335254873E-10 2.580000000000E+02 2.036000000000E+03 0.000000000000E+00
     3.120000000000E+00 0.000000000000E+00-3.492459654808E-09 0.000000000000E+00
     4.210000000000E+04 0.000000000000E+00 0.000000000000E+00 0.000000000000E+00
E11 2019 01 13 11 30 00 5.719703680370E-03 7.531752999057E-13 0.000000000000E+00
     6.900000000000E+01 1.943750000000E+01 2.914764268774E-09-1.518484212242E+00
     7.580965757370E-07 2.803964307532E-04 6.932765245438E-06 5.440603805542E+03
     4.140000000000E+04 5.960464477539E-08-9.847635815502E-01-2.421438694000E-08
     9.819469785588E-01 1.997812500000E+02-3.450147036816E-01-5.632377468272E-09
     3.710868858297E-10 2.580000000000E+02 2.036000000000E+03 0.000000000000E+00
     3.120000000000E+00 0.000000000000E+00-1.839362084866E-08 0.000000000000E+00
     4.210000000000E+04 0.000000000000E+00 0.000000000000E+00 0.000000000000E+00
E12 2019 01 13 11 30 00 5.932924686931E-03 8.434142273472E-11 0.000000000000E+00
     6.900000000000E+01 2.500000000000E+01 2.917621530648E-09-2.151493811267E-01
     1.166015863419E-06 4.020989872515E-04 6.774440407753E-06 5.440602220535E+03
     4.140000000000E+04 3.911554813385E-08-9.847792669579E-01-5.587935447693E-09
     9.819615462970E-01 2.019062500000E+02-8.447256635631E-01-5.638449149754E-09
     3.771585673111E-10 2.580000000000E+02 2.036000000000E+03 0.000000000000E+00
     3.120000000000E+00 0.000000000000E+00-1.536682248116E-08 0.000000000000E+00
     4.210000000000E+04 0.000000000000E+00 0.000000000000E+00 0.000000000000E+00
E13 2019 01 13 11 30 00 3.816807293333E-04 5.258016244625E-13 0.000000000000E+00
     6.900000000000E+01 2.409375000000E+01 2.879405653089E-09 2.788236470018E+00
     9.313225746155E-07 3.436339320615E-04 5.641952157021E-06 5.440598375320E+03
     4.140000000000E+04 1.862645149231E-09-9.900486496031E-01 3.166496753693E-08
     9.851894706502E-01 2.307187500000E+02-1.503608992036E+00-5.608447900081E-09
     3.039412318009E-10 2.580000000000E+02 2.036000000000E+03 0.000000000000E+00
     3.120000000000E+00 5.600000000000E+01-4.423782229424E-09 0.000000000000E+00
     4.210000000000E+04 0.000000000000E+00 0.000000000000E+00 0.000000000000E+00
E15 2019 01 13 11 30 00 9.230850846507E-04-9.947598300641E-13 0.000000000000E+00
     6.900000000000E+01 1.353125000000E+01 2.805831159844E-09-2.619917687436E+00
     6.612390279770E-07 3.887756029144E-04 5.802139639854E-06 5.440600189209E+03
     4.140000000000E+04-4.284083843231E-08-9.900605562933E-01 3.352761268616E-08
     9.851471645223E-01 2.249375000000E+02-1.596358662426E+00-5.592732959776E-09
     3.221562762449E-10 2.580000000000E+02 2.036000000000E+03 0.000000000000E+00
     3.120000000000E+00 5.600000000000E+01 1.396983861923E-09 0.000000000000E+00
     4.210000000000E+04 0.000000000000E+00 0.000000000000E+00 0.000000000000E+00
E19 2019 01 13 11 30 00-9.154609870166E-06 2.131628207280E-13 0.000000000000E+00
     6.900000000000E+01-2.268750000000E+01 3.161560263104E-09 1.579131571728E+00
    -1.022592186928E-06 1.360534224659E-04 1.150742173195E-05 5.440626127243E+03
     4.140000000000E+04 5.774199962616E-08 1.117317368639E+00-6.332993507385E-08
     9.582225507983E-01 8.800000000000E+01 2.394860592676E+00-5.588447066966E-09
    -1.375057276655E-10 2.580000000000E+02 2.036000000000E+03 0.000000000000E+00
     3.120000000000E+00 0.000000000000E+00-8.381903171539E-09 0.000000000000E+00
     4.210000000000E+04 0.000000000000E+00 0.000000000000E+00 0.000000000000E+00
E21 2019 01 13 11 30 00-5.142164300196E-04-1.847411112976E-12 0.000000000000E+00
     6.900000000000E+01 1.159375000000E+01 2.889048911912E-09 2.222289667536E+00
     5.532056093216E-07 4.945741966367E-05 5.666166543961E-06 5.440624750137E+03
     4.140000000000E+04-4.842877388000E-08-3.072652058326E+00 2.235174179077E-08
     9.896790184807E-01 2.340000000000E+02 3.841687273809E-01-5.647378093108E-09
    -2.757257707994E-10 2.580000000000E+02 2.036000000000E+03 0.000000000000E+00
     3.120000000000E+00 0.000000000000E+00-2.328306436539E-09 0.000000000000E+00
     4.210000000000E+04 0.000000000000E+00 0.000000000000E+00 0.000000000000E+00
E24 2019 01 13 11 30 00 6.288244388998E-03-1.971045548999E-11 0.000000000000E+00
     6.900000000000E+01 2.178125000000E+01 2.915478584243E-09-2.842491448035E-01
     1.005828380585E-06 4.796411376446E-04 5.241483449936E-06 5.440610233307E+03
     4.140000000000E+04 2.235174179077E-08-3.066584642165E+00 5.587935447693E-08
     9.876840107635E-01 2.405312500000E+02 5.139323332417E-01-5.628805890930E-09
    -1.971510692762E-10 2.580000000000E+02 2.036000000000E+03 0.000000000000E+00
     3.120000000000E+00 0.000000000000E+00 4.260800778866E-08 0.000000000000E+00
     4.210000000000E+04 0.000000000000E+00 0.000000000000E+00 0.000000000000E+00
E26 2019 01 13 11 30 00 5.024712125305E-03-4.330047431722E-11 0.000000000000E+00
     6.900000000000E+01 2.753125000000E+01 3.005482333260E-09 2.495819776043E+00
     1.221895217896E-06 3.174308221787E-04 5.908310413361E-06 5.440608743668E+03
     4.140000000000E+04 2.793967723846E-08-9.811446235832E-01 5.401670932770E-08
     9.783057549787E-01 2.258125000000E+02-1.993243917856E+00-5.668450399426E-09
     3.364425856127E-10 2.580000000000E+02 2.036000000000E+03 0.000000000000E+00
     3.120000000000E+00 0.000000000000E+00 1.164153218269E-09 0.000000000000E+00
     4.210000000000E+04 0.000000000000E+00 0.000000000000E+00 0.000000000000E+00
E27 2019 01 13 11 30 00 5.506026209332E-04-7.659650691494E-12 0.000000000000E+00
     6.900000000000E+01 1.628125000000E+01 2.804045371173E-09-2.079932187604E+00
     7.804483175278E-07 1.820405013859E-04 5.660578608513E-06 5.440624794006E+03
     4.140000000000E+04 1.117587089539E-08-3.072636589430E+00 7.450580596924E-09
     9.896519647367E-01 2.336562500000E+02-8.099225937613E-01-5.575589388535E-09
    -2.292952653539E-10 2.580000000000E+02 2.036000000000E+03 0.000000000000E+00
     3.120000000000E+00 0.000000000000E+00-2.561137080193E-09 0.000000000000E+00
     4.210000000000E+04 0.000000000000E+00 0.000000000000E+00 0.000000000000E+00
E19 2019 01 13 11 30 00-9.155308362097E-06 2.273736754432E-13 0.000000000000E+00
     6.900000000000E+01-2.268750000000E+01 3.161560263104E-09 1.579131571728E+00
    -1.022592186928E-06 1.360534224659E-04 1.150742173195E-05 5.440626127243E+03
     4.140000000000E+04 5.774199962616E-08 1.117317368639E+00-6.332993507385E-08
     9.582225507983E-01 8.800000000000E+01 2.394860592676E+00-5.588447066966E-09
    -1.375057276655E-10 5.210000000000E+02 2.036000000000E+03 0.000000000000E+00
     3.120000000000E+00 0.000000000000E+00-8.381903171539E-09-8.614733815193E-09
     4.211500000000E+04 0.000000000000E+00 0.000000000000E+00 0.000000000000E+00
